NORAD_CAT_ID,OBJECT_NAME,OBJECT_TYPE,EPOCH,MEAN_MOTION,ECCENTRICITY,INCLINATION,RA_OF_ASC_NODE,ARG_OF_PERICENTER,MEAN_ANOMALY,BSTAR,MEAN_MOTION_DOT,MEAN_MOTION_DDOT,TLE_LINE0,TLE_LINE1,TLE_LINE2,SEMIMAJOR_AXIS,PERIOD,APOGEE,PERIGEE,DECAYED
53427.0,STARLINK-4541,PAYLOAD,2024-01-31 00:17:16,15.08842078,0.0001873,53.22,324.8434,69.153,290.9663,5.363e-05,5.66e-06,0.0,0 STARLINK-4541,1 53427U 22097AR  24031.01199803  .00000566  00000-0  53630-4 0  9990,2 53427  53.2200 324.8434 0001873  69.1530 290.9663 15.08842078 82127,6917.874,95.437,541.035,538.443,0.0
53427.0,STARLINK-4541,PAYLOAD,2024-01-31 19:21:54,15.08838529,0.0001353,53.2189,321.278,99.341,260.7735,3.175e-05,2.17e-06,0.0,0 STARLINK-4541,1 53427U 22097AR  24031.80687858  .00000217  00000-0  31750-4 0  9991,2 53427  53.2189 321.2780 0001353  99.3410 260.7735 15.08838529 82720,6917.885,95.438,540.686,538.814,0.0
53427.0,STARLINK-4541,PAYLOAD,2024-02-01 01:43:26,15.08842861,0.0001512,53.2186,320.0919,84.3024,275.814,4.6561e-05,4.53e-06,0.0,0 STARLINK-4541,1 53427U 22097AR  24032.07183617  .00000453  00000-0  46561-4 0  9993,2 53427  53.2186 320.0919 0001512  84.3024 275.8140 15.08842861 82282,6917.872,95.437,540.783,538.691,0.0
53427.0,STARLINK-4541,PAYLOAD,2024-02-01 19:12:41,15.08837466,0.0001564,53.2188,316.8247,94.6792,265.4379,5.4138e-05,5.74e-06,0.0,0 STARLINK-4541,1 53427U 22097AR  24032.80047941  .00000574  00000-0  54138-4 0  9996,2 53427  53.2188 316.8247 0001564  94.6792 265.4379 15.08837466 82873,6917.888,95.438,540.835,538.671,0.0
53427.0,STARLINK-4541,PAYLOAD,2024-02-02 01:34:13,15.08840771,0.0001622,53.219,315.6357,94.8468,265.271,7.396e-05,8.89e-06,0.0,0 STARLINK-4541,1 53427U 22097AR  24033.06543702  .00000889  00000-0  73960-4 0  9994,2 53427  53.2190 315.6357 0001622  94.8468 265.2710 15.08840771 82917,6917.878,95.438,540.865,538.621,0.0
53427.0,STARLINK-4541,PAYLOAD,2024-02-02 22:14:15,15.08830045,0.0001719,53.2192,311.7717,102.8772,257.2412,4.6411e-06,-2.14e-06,0.0,0 STARLINK-4541,1 53427U 22097AR  24033.92656794 -.00000214  00000-0  46411-5 0  9990,2 53427  53.2192 311.7717 0001719 102.8772 257.2412 15.08830045 83049,6917.911,95.438,540.965,538.587,0.0
53427.0,STARLINK-4541,PAYLOAD,2024-02-02 23:49:38,15.08830076,0.0001692,53.2189,311.4742,102.2247,257.8935,3.1916e-06,-2.37e-06,0.0,0 STARLINK-4541,1 53427U 22097AR  24033.99280824 -.00000237  00000-0  31916-5 0  9993,2 53427  53.2189 311.4742 0001692 102.2247 257.8935 15.08830076 82578,6917.911,95.438,540.946,538.605,0.0
53427.0,STARLINK-4541,PAYLOAD,2024-02-03 18:54:15,15.08845581,0.0001578,53.218,307.9003,104.2766,255.8402,-8.1779e-05,-1.59e-05,0.0,0 STARLINK-4541,1 53427U 22097AR  24034.78768493 -.00001590  00000-0 -81779-4 0  9999,2 53427  53.2180 307.9003 0001578 104.2766 255.8402 15.08845581 82697,6917.863,95.437,540.82,538.637,0.0
53427.0,STARLINK-4541,PAYLOAD,2024-02-03 22:05:02,15.08818333,0.0001972,53.2182,307.308,104.0098,256.1113,0.00031494,4.725e-05,0.0,0 STARLINK-4541,1 53427U 22097AR  24034.92016851  .00004725  00000-0  31494-3 0  9998,2 53427  53.2182 307.3080 0001972 104.0098 256.1113 15.08818333 83196,6917.947,95.439,541.176,538.447,0.0
53427.0,STARLINK-4541,PAYLOAD,2024-02-03 23:40:25,15.08821534,0.0001962,53.2182,307.0109,104.4841,255.6369,0.00030249,4.527e-05,0.0,0 STARLINK-4541,1 53427U 22097AR  24034.98640776  .00004527  00000-0  30249-3 0  9990,2 53427  53.2182 307.0109 0001962 104.4841 255.6369 15.08821534 82726,6917.937,95.439,541.159,538.445,0.0
53427.0,STARLINK-4541,PAYLOAD,2024-02-04 21:55:49,15.08840509,0.0001487,53.2173,302.8487,105.6593,254.4563,0.00010082,1.317e-05,0.0,0 STARLINK-4541,1 53427U 22097AR  24035.91376319  .00001317  00000-0  10082-3 0  9990,2 53427  53.2173 302.8487 0001487 105.6593 254.4563 15.08840509 83342,6917.879,95.438,540.773,538.715,0.0
53427.0,STARLINK-4541,PAYLOAD,2024-02-05 02:41:58,15.08844447,0.0001336,53.2167,301.9544,93.9015,266.213,0.00013065,1.792e-05,0.0,0 STARLINK-4541,1 53427U 22097AR  24036.11248027  .00001792  00000-0  13065-3 0  9998,2 53427  53.2167 301.9544 0001336  93.9015 266.2130 15.08844447 82895,6917.867,95.437,540.656,538.808,0.0
53427.0,STARLINK-4541,PAYLOAD,2024-02-05 21:46:34,15.08856524,0.0001257,53.2164,298.3861,91.6102,268.5035,0.00013867,1.921e-05,0.0,0 STARLINK-4541,1 53427U 22097AR  24036.90734862  .00001921  00000-0  13867-3 0  9996,2 53427  53.2164 298.3861 0001257  91.6102 268.5035 15.08856524 83492,6917.83,95.437,540.564,538.825,0.0
53427.0,STARLINK-4541,PAYLOAD,2024-02-06 00:57:19,15.08872731,0.0001231,53.2169,297.7915,105.1498,254.963,0.00026882,3.997e-05,0.0,0 STARLINK-4541,1 53427U 22097AR  24037.03981353  .00003997  00000-0  26882-3 0  9996,2 53427  53.2169 297.7915 0001231 105.1498 254.9630 15.08872731 83039,6917.78,95.435,540.497,538.794,0.0
53427.0,STARLINK-4541,PAYLOAD,2024-02-07 03:58:56,15.08837116,0.0001423,53.2179,292.7344,88.6792,271.4363,-6.6921e-05,-1.353e-05,0.0,0 STARLINK-4541,1 53427U 22097AR  24038.16592620 -.00001353  00000-0 -66921-4 0  9991,2 53427  53.2179 292.7344 0001423  88.6792 271.4363 15.08837116 83200,6917.889,95.438,540.739,538.77,0.0
53427.0,STARLINK-4541,PAYLOAD,2024-02-07 10:20:28,15.08836267,0.0001466,53.2173,291.547,85.6517,274.4643,-8.1662e-05,-1.587e-05,0.0,0 STARLINK-4541,1 53427U 22097AR  24038.43088819 -.00001587  00000-0 -81662-4 0  9999,2 53427  53.2173 291.5470 0001466  85.6517 274.4643 15.08836267 83727,6917.892,95.438,540.771,538.743,0.0
53427.0,STARLINK-4541,PAYLOAD,2024-02-07 21:28:10,15.08851674,0.000166,53.2169,289.4674,58.5889,301.5265,-0.00015199,-2.707e-05,0.0,0 STARLINK-4541,1 53427U 22097AR  24038.89456245 -.00002707  00000-0 -15199-3 0  9997,2 53427  53.2169 289.4674 0001660  58.5889 301.5265 15.08851674 83799,6917.845,95.437,540.858,538.561,0.0
53427.0,STARLINK-4541,PAYLOAD,2024-02-08 02:14:19,15.0883603,0.0001515,53.2173,288.5701,114.0528,246.0622,0.00021469,3.13e-05,0.0,0 STARLINK-4541,1 53427U 22097AR  24039.09327960  .00003130  00000-0  21469-3 0  9997,2 53427  53.2173 288.5701 0001515 114.0528 246.0622 15.08836030 83342,6917.893,95.438,540.806,538.709,0.0
53427.0,STARLINK-4541,PAYLOAD,2024-02-08 10:11:15,15.08837013,0.0001707,53.2165,287.0842,99.8867,260.2318,-1.654e-05,-5.51e-06,0.0,0 STARLINK-4541,1 53427U 22097AR  24039.42448198 -.00000551  00000-0 -16540-4 0  9992,2 53427  53.2165 287.0842 0001707  99.8867 260.2318 15.08837013 83872,6917.89,95.438,540.935,538.574,0.0
53427.0,STARLINK-4541,PAYLOAD,2024-02-08 19:43:34,15.08834672,0.0001599,53.2155,285.2995,87.3524,272.7651,0.00015618,2.198e-05,0.0,0 STARLINK-4541,1 53427U 22097AR  24039.82192642  .00002198  00000-0  15618-3 0  9997,2 53427  53.2155 285.2995 0001599  87.3524 272.7651 15.08834672 83451,6917.897,95.438,540.868,538.656,0.0
53427.0,STARLINK-4541,PAYLOAD,2024-02-08 21:18:57,15.08835414,0.0001637,53.2165,285.0014,87.4906,272.6273,0.00014641,2.043e-05,0.0,0 STARLINK-4541,1 53427U 22097AR  24039.88816633  .00002043  00000-0  14641-3 0  9990,2 53427  53.2165 285.0014 0001637  87.4906 272.6273 15.08835414 83948,6917.894,95.438,540.892,538.627,0.0
53427.0,STARLINK-4541,PAYLOAD,2024-02-09 02:05:06,15.0883794,0.000167,53.2172,284.1089,93.3454,266.773,0.00015726,2.216e-05,0.0,0 STARLINK-4541,1 53427U 22097AR  24040.08688458  .00002216  00000-0  15726-3 0  9993,2 53427  53.2172 284.1089 0001670  93.3454 266.7730 15.08837940 83970,6917.887,95.438,540.907,538.596,0.0
53427.0,STARLINK-4541,PAYLOAD,2024-02-09 22:45:08,15.08842331,0.000148,53.2168,280.2486,86.4046,273.7115,2.1436e-05,5.3e-07,0.0,0 STARLINK-4541,1 53427U 22097AR  24040.94801022  .00000053  00000-0  21436-4 0  9995,2 53427  53.2168 280.2486 0001480  86.4046 273.7115 15.08842331 83629,6917.873,95.437,540.762,538.714,0.0
53427.0,STARLINK-4541,PAYLOAD,2024-02-10 21:00:31,15.08844936,0.000157,53.2168,276.0831,94.0064,266.1108,0.00013973,1.937e-05,0.0,0 STARLINK-4541,1 53427U 22097AR  24041.87536830  .00001937  00000-0  13973-3 0  9998,2 53427  53.2168 276.0831 0001570  94.0064 266.1108 15.08844936 84241,6917.865,95.437,540.816,538.644,0.0
53427.0,STARLINK-4541,PAYLOAD,2024-02-11 01:46:41,15.08848695,0.0001604,53.2157,275.1892,103.68,256.4371,0.00014953,2.093e-05,0.0,0 STARLINK-4541,1 53427U 22097AR  24042.07408631  .00002093  00000-0  14953-3 0  9991,2 53427  53.2157 275.1892 0001604 103.6800 256.4371 15.08848695 83798,6917.854,95.437,540.828,538.609,0.0
53427.0,STARLINK-4541,PAYLOAD,2024-02-11 20:51:18,15.08842793,0.0001374,53.2148,271.6176,80.1933,279.9214,6.0528e-05,6.76e-06,0.0,0 STARLINK-4541,1 53427U 22097AR  24042.86896829  .00000676  00000-0  60528-4 0  9993,2 53427  53.2148 271.6176 0001374  80.1933 279.9214 15.08842793 83917,6917.872,95.437,540.687,538.786,0.0
53427.0,STARLINK-4541,PAYLOAD,2024-02-12 00:02:04,15.0884586,0.0001427,53.2151,271.0225,87.2737,272.8419,0.00010755,1.424e-05,0.0,0 STARLINK-4541,1 53427U 22097AR  24043.00144634  .00001424  00000-0  10755-3 0  9998,2 53427  53.2151 271.0225 0001427  87.2737 272.8419 15.08845860 84412,6917.862,95.437,540.715,538.74,0.0
53427.0,STARLINK-4541,PAYLOAD,2024-02-12 19:06:43,15.08836147,0.0001626,53.2155,267.459,83.4964,276.6213,-5.9842e-05,-1.24e-05,0.0,0 STARLINK-4541,1 53427U 22097AR  24043.79633371 -.00001240  00000-0 -59842-4 0  9994,2 53427  53.2155 267.4590 0001626  83.4964 276.6213 15.08836147 84053,6917.892,95.438,540.882,538.632,0.0
53427.0,STARLINK-4541,PAYLOAD,2024-02-12 22:17:29,15.08835575,0.0001617,53.2155,266.8607,79.1859,280.9315,-3.9483e-05,-9.16e-06,0.0,0 STARLINK-4541,1 53427U 22097AR  24043.92881430 -.00000916  00000-0 -39483-4 0  9998,2 53427  53.2155 266.8607 0001617  79.1859 280.9315 15.08835575 84550,6917.894,95.438,540.878,538.64,0.0
53427.0,STARLINK-4541,PAYLOAD,2024-02-13 07:49:48,15.0883874,0.0001558,53.2158,265.0773,96.1109,264.0061,6.0408e-05,6.73e-06,0.0,0 STARLINK-4541,1 53427U 22097AR  24044.32625329  .00000673  00000-0  60408-4 0  9995,2 53427  53.2158 265.0773 0001558  96.1109 264.0061 15.08838740 84614,6917.884,95.438,540.827,538.671,0.0
